{"fetched_at":"2026-07-06T18:35:52.738Z","source":"https://celestrak.org/NORAD/elements/gp.php?NAME=SENTINEL&FORMAT=JSON","constellation":"sentinel-2","records":[{"OBJECT_NAME":"SENTINEL-2A","OBJECT_ID":"2015-028A","EPOCH":"2026-07-06T07:20:03.403680","CLASSIFICATION_TYPE":"U","MEAN_MOTION":14.30821485,"ECCENTRICITY":0.00012369,"INCLINATION":98.5675,"RA_OF_ASC_NODE":261.8859,"ARG_OF_PERICENTER":96.3492,"MEAN_ANOMALY":263.7832,"EPHEMERIS_TYPE":0,"NORAD_CAT_ID":40697,"ELEMENT_SET_NO":999,"REV_AT_EPOCH":57646,"BSTAR":0.000092961366,"MEAN_MOTION_DOT":0.000002,"MEAN_MOTION_DDOT":0},{"OBJECT_NAME":"SENTINEL-2B","OBJECT_ID":"2017-013A","EPOCH":"2026-07-06T07:09:41.486112","CLASSIFICATION_TYPE":"U","MEAN_MOTION":14.30813702,"ECCENTRICITY":0.00012005,"INCLINATION":98.5682,"RA_OF_ASC_NODE":261.8032,"ARG_OF_PERICENTER":90.0409,"MEAN_ANOMALY":270.0912,"EPHEMERIS_TYPE":0,"NORAD_CAT_ID":42063,"ELEMENT_SET_NO":999,"REV_AT_EPOCH":48737,"BSTAR":0.00006606448,"MEAN_MOTION_DOT":0.0000013,"MEAN_MOTION_DDOT":0},{"OBJECT_NAME":"SENTINEL-2C","OBJECT_ID":"2024-157A","EPOCH":"2026-07-06T04:38:40.087392","CLASSIFICATION_TYPE":"U","MEAN_MOTION":14.30814003,"ECCENTRICITY":0.00009373,"INCLINATION":98.5686,"RA_OF_ASC_NODE":261.7062,"ARG_OF_PERICENTER":94.8836,"MEAN_ANOMALY":265.2454,"EPHEMERIS_TYPE":0,"NORAD_CAT_ID":60989,"ELEMENT_SET_NO":999,"REV_AT_EPOCH":9570,"BSTAR":0.000061530816,"MEAN_MOTION_DOT":0.00000118,"MEAN_MOTION_DDOT":0}]}
